MAKERSAT 0              
1 43016U 17073D   26068.63673096  .00023659  00000+0  71590-3 0  9993
2 43016  97.4777 310.6155 0115258 266.0743  92.7313 15.27797199451246
STARLINK-34957          
1 65388U 25191K   26068.62320742  .00002162  00000+0  15399-3 0  9996
2 65388  97.6022 301.5273 0001967  62.8793 297.2634 15.05648240 30266
